OBJECT_NAME,OBJECT_ID,EPOCH,MEAN_MOTION,ECCENTRICITY,INCLINATION,RA_OF_ASC_NODE,ARG_OF_PERICENTER,MEAN_ANOMALY,EPHEMERIS_TYPE,CLASSIFICATION_TYPE,NORAD_CAT_ID,ELEMENT_SET_NO,REV_AT_EPOCH,BSTAR,MEAN_MOTION_DOT,MEAN_MOTION_DDOT
LEMUR-1,2014-033AL,2026-06-16T10:02:06.316224,14.85244656,.00497052,97.7877,317.2400,81.1102,279.5736,0,U,40044,999,64535,.22123345E-3,.1885E-4,0
LEMUR-2-GREENBERG,2017-042N,2026-06-16T10:24:20.111040,15.31308978,.00086096,97.3813,348.0613,16.7822,343.3703,0,U,42837,999,48827,.45758704E-3,.13785E-3,0
LEMUR-2-ANDIS,2017-042P,2026-06-16T11:08:59.988480,15.34819017,.00082333,97.3671,348.2738,15.0070,345.1416,0,U,42838,999,48834,.51974477E-3,.17504E-3,0
LEMUR-2-MONSON,2017-042Q,2026-06-16T10:34:36.597504,15.27993959,.00062585,97.4072,348.0418,8.9145,351.2204,0,U,42839,999,48805,.43816373E-3,.11905E-3,0
LEMUR-2-FURIAUS,2017-042R,2026-06-16T11:48:47.916864,15.30232251,.00082137,97.3765,346.0766,71.3832,288.8300,0,U,42840,999,48810,.46750045E-3,.13621E-3,0
LEMUR-2-PETERG,2017-042S,2026-06-16T10:45:31.097376,15.33859865,.0003299,97.3984,352.4769,0.2045,359.9198,0,U,42841,999,48832,.51334044E-3,.16753E-3,0
LEMUR-2-DEMBITZ,2017-042T,2026-06-16T06:00:48.569760,15.30268456,.0006834,97.3819,348.8597,31.9119,328.2534,0,U,42842,999,48820,.46762E-3,.13635E-3,0
LEMUR-2-ZACHARY,2017-042W,2026-06-16T11:31:10.735968,15.50207783,.00029413,97.3587,359.1014,35.6103,324.5344,0,U,42845,999,48909,.62693598E-3,.35409E-3,0
LEMUR-2-AMANDA-SVANTE,2021-034B,2026-06-16T04:24:17.353152,15.34247275,.00021616,97.5763,245.4426,211.4452,148.6661,0,U,48269,999,28090,.8276876E-3,.27427E-3,0
LEMUR-2-SPECIAL-K,2021-034F,2026-06-16T12:14:00.194208,15.64291428,.00042255,97.5655,254.3179,229.4235,130.6656,0,U,48273,999,28158,.1321112E-2,.12763E-2,0
LEMUR-2-EMBRIONOVIS,2023-084AQ,2026-06-16T08:32:10.061664,15.37531041,.0007789,97.6292,311.5224,323.5171,36.5541,0,U,56970,999,16755,.30168912E-3,.11035E-3,0
LEMUR-2-DEVERILL-M-T,2023-100F,2026-06-16T14:02:20.785056,15.39728292,.00063507,99.4462,206.1688,52.2915,307.8899,0,U,57391,999,16115,.55231649E-3,.21777E-3,0
LEMUR-2-BASS,2023-174D,2026-06-16T05:42:03.932928,15.43068810,.0007661,97.3850,251.9360,165.2276,194.9197,0,U,58259,999,14521,.3417E-3,.15031E-3,0
LEMUR-2-JK0903EM1407,2023-174CJ,2026-06-16T05:46:53.632128,15.51639695,.0005762,97.3927,257.6838,122.3828,237.7982,0,U,58336,999,14558,.39143E-3,.23198E-3,0
LEMUR-2-MJR092620,2023-174CN,2026-06-16T12:15:53.399808,15.44853975,.00070994,97.3982,257.5275,119.6055,240.5902,0,U,58340,999,14554,.33023326E-3,.15426E-3,0
LEMUR-2-NIMBUS2000,2024-022A,2026-06-16T13:24:55.852128,15.39979321,.00103132,97.4103,17.5524,117.7998,242.4294,0,U,58899,999,13217,.33108038E-3,.13146E-3,0
LEMUR-2-VALHALLA,2024-022B,2026-06-16T13:19:17.776704,15.39656475,.00108439,97.4101,17.5394,113.9825,246.2557,0,U,58900,999,13217,.31420158E-3,.1234E-3,0
LEMUR-2-CAEL,2024-022E,2026-06-16T13:34:12.848736,15.40957067,.00092674,97.4083,18.4847,99.3313,260.8982,0,U,58903,999,13224,.32445773E-3,.133E-3,0
LEMUR-2-JOHNNYTRUONG,2024-043BA,2026-06-16T09:07:57.163008,15.60412144,.00047797,97.5377,319.0331,178.7042,181.4227,0,U,59146,999,12791,.40940149E-3,.33577E-3,0
LEMUR-2-TOMATOKECHUP,2024-149D,2026-06-16T04:41:13.746336,15.36017182,.00013254,97.3806,249.2392,177.5329,182.5921,0,U,60471,999,10201,.26406406E-3,.9181E-4,0
LEMUR-2-STELLA,2024-149BT,2026-06-16T11:39:57.490848,15.11800011,.00017485,97.6744,249.9376,95.7986,264.3444,0,U,60533,999,10039,.56590363E-3,.9602E-4,0
LEMUR-2-MARHISYAM,2024-149BW,2026-06-16T14:21:56.115360,15.11250851,.00032845,97.6882,250.4990,119.2400,240.9159,0,U,60536,999,10039,.50655552E-3,.8457E-4,0
LEMUR-2-AHMED-ASRAR,2024-149DN,2026-06-16T12:01:24.424032,15.12701956,.00019176,97.7012,252.4911,45.6523,314.4865,0,U,60576,999,10046,.55235163E-3,.9609E-4,0
LEMUR-2-LLOYD,2024-149DP,2026-06-16T02:44:15.845856,15.09220950,.00047546,97.6748,248.2419,143.9486,216.2064,0,U,60577,999,10023,.57243197E-3,.9047E-4,0
LEMUR-2-SQUIRRELCOMM,2024-149DQ,2026-06-16T11:00:33.707808,15.07143179,.00064291,97.6708,248.3720,63.6602,296.5285,0,U,60578,999,10029,.31386397E-3,.4657E-4,0
LEMUR-2-SIERRINI,2024-149DR,2026-06-16T05:23:26.972736,15.10932402,.0005786,97.6849,249.8122,166.6457,193.4927,0,U,60579,999,10031,.54572E-3,.9039E-4,0
LEMUR-2-WILSON,2025-009CP,2026-06-16T05:23:59.449632,14.95161350,.0004254,97.7026,245.7062,60.5332,299.6313,0,U,62694,999,7721,.21265E-3,.2278E-4,0
LEMUR-2-STAR-FOX,2025-009CR,2026-06-16T03:51:00.035712,15.02492808,.00037519,97.6957,248.7762,114.0474,246.1144,0,U,62696,999,7740,.49627009E-3,.6531E-4,0
LEMUR-2-ARIANNA,2025-009CU,2026-06-16T03:48:35.444448,15.02474103,.00041139,97.6898,248.5503,119.8587,240.3047,0,U,62699,999,7740,.49444971E-3,.6504E-4,0
LEMUR-2-ALISIA,2025-009DB,2026-06-16T04:52:56.384832,15.02758586,.00019008,97.6958,249.3799,191.2572,168.8611,0,U,62706,999,10001,.44727848E-3,.5921E-4,0
